INTELSAT 902 (IS-902)   
1 26900U 01039A   26116.90808589 -.00000290  00000+0  00000+0 0  9993
2 26900   5.9893  72.3941 0004515 320.0211  99.3035  1.00270761 90184
INTELSAT 904 (IS-904)   
1 27380U 02007A   26116.70164001 -.00000233  00000+0  00000+0 0  9991
2 27380   6.7944  69.7905 0007747 338.9290  27.0697  1.00269764 51256
DIRECTV 5 (TEMPO 1)     
1 27426U 02023A   26117.48973219 -.00000063  00000+0  00000+0 0  9996
2 27426   4.7508  75.9256 0003505 324.1132 241.6350  1.00272099 87613
INTELSAT 905 (IS-905)   
1 27438U 02027A   26117.49993802  .00000089  00000+0  00000+0 0  9991
2 27438   6.6291  70.3993 0003605 337.4720 210.3966  1.00271374 50851
GALAXY 3C (G-3C)        
1 27445U 02030A   26117.46834832 -.00000159  00000+0  00000+0 0  9996
2 27445   3.6009  78.6528 0001621  24.7069 185.8349  1.00271747 45989
INTELSAT 906 (IS-906)   
1 27513U 02041A   26117.00577457  .00000007  00000+0  00000+0 0  9992
2 27513   5.6741  73.5351 0004039 336.0928 231.6081  1.00270668 86515
GALAXY 13 (HORIZONS-1)  
1 27954U 03044A   26117.50591683  .00000125  00000+0  00000+0 0  9998
2 27954   1.2884  84.4547 0002202 315.2167 207.9582  1.00273796 46069
INTELSAT 10-02          
1 28358U 04022A   26117.32891698  .00000000  00000+0  00000+0 0  9995
2 28358   0.0157  73.3908 0001274   1.5974 257.7039  1.00270028 80046
DIRECTV 8               
1 28659U 05019A   26117.45858757  .00000000  00000+0  00000+0 0  9999
2 28659   0.0125 230.6493 0003270 174.4860 216.3512  1.00271216 76563
GALAXY 28 (G-28)        
1 28702U 05022A   26117.23378112 -.00000208  00000+0  00000+0 0  9991
2 28702   3.1700  79.5407 0003209 324.0494 228.6682  1.00267456 51465
GALAXY 16 (G-16)        
1 29236U 06023A   26117.48484961 -.00000136  00000+0  00000+0 0  9993
2 29236   0.0198 225.5187 0002785 170.4482 255.0490  1.00272558 72464
DIRECTV 9S              
1 29494U 06043A   26117.46521847 -.00000121  00000+0  00000+0 0  9998
2 29494   2.2919  81.4824 0004246 330.7134 229.5312  1.00271754 50878
GALAXY 17 (G-17)        
1 31307U 07016B   26117.42987301 -.00000213  00000+0  00000+0 0  9994
2 31307   2.8459  80.5121 0004350 330.7684 233.8881  1.00270993 69294
INTELSAT 11 (IS-11)     
1 32253U 07044B   26117.22822620 -.00000216  00000+0  00000+0 0  9999
2 32253   3.4349  79.2641 0001332 225.6244 342.3380  0.99053050 67943
HORIZONS-2              
1 32388U 07063B   26117.48224469 -.00000260  00000+0  00000+0 0  9993
2 32388   2.4734  81.2219 0003472 323.3797 270.6852  1.00272368 67304
DIRECTV 11              
1 32729U 08013A   26117.49269373 -.00000135  00000+0  00000+0 0  9993
2 32729   0.0108 120.4926 0000228 236.3435 296.8178  1.00270676 45083
GALAXY 18 (G-18)        
1 32951U 08024A   26117.49650333  .00000016  00000+0  00000+0 0  9999
2 32951   0.0150 260.8317 0003257 143.3182 227.0716  1.00272101 45349
INTELSAT 25 (IS-25)     
1 33153U 08034A   26113.08239256 -.00000278  00000+0  00000+0 0  9994
2 33153   2.5670  80.9425 0002165 274.6153 207.9060  0.99965107 65143
GALAXY 19 (G-19)        
1 33376U 08045A   26117.48416604 -.00000148  00000+0  00000+0 0  9991
2 33376   0.0178 251.2794 0003366 161.9229 239.5612  1.00272016 64397
FM-5                    
1 35493U 09034A   26117.42995639 -.00000210  00000+0  00000+0 0  9996
2 35493   0.0155 267.6418 0000618   5.5307  10.8838  1.00271276 46134
INTELSAT 14 (IS-14)     
1 36097U 09064A   26117.24489122 -.00000283  00000+0  00000+0 0  9995
2 36097   0.0051 267.9479 0002484 127.9346 222.5147  1.00271989 60092
INTELSAT 15 (IS-15)     
1 36106U 09067A   26117.34767167 -.00000195  00000+0  00000+0 0  9990
2 36106   0.0302  58.8511 0002360 341.5646  25.2361  1.00271918 40711
DIRECTV 12              
1 36131U 09075A   26117.46455816 -.00000113  00000+0  00000+0 0  9995
2 36131   0.0446  79.3943 0000177 348.5552 212.0159  1.00271445 46040
INTELSAT 16 (IS-16)     
1 36397U 10006A   26117.48211256 -.00000254  00000+0  00000+0 0  9991
2 36397   0.0151 281.0974 0002155 145.4627 246.2729  1.00270586 59140
XM-5                    
1 37185U 10053A   26117.49103243 -.00000032  00000+0  00000+0 0  9990
2 37185   0.0645 271.1450 0003678 276.2406  89.6722  1.00270921 56975
INTELSAT 17 (IS-17)     
1 37238U 10065B   26117.17822741 -.00000012  00000+0  00000+0 0  9996
2 37238   0.0187 169.8847 0002799 243.3197 292.1276  1.00271571 52730
INTELSAT 28 (IS-28)     
1 37392U 11016A   26117.23933605 -.00000233  00000+0  00000+0 0  9998
2 37392   1.6763  83.2079 0004196 317.6894 228.7807  1.00270775 52770
INTELSAT 18 (IS-18)     
1 37834U 11056A   26117.46094852  .00000000  00000+0  00000+0 0  9991
2 37834   0.0162 243.7907 0001984 151.3902 166.2101  1.00270775 53308
INTELSAT 22 (IS-22)     
1 38098U 12011A   26117.08274998 -.00000069  00000+0  00000+0 0  9991
2 38098   0.0221 106.9851 0001760 294.0083 275.9693  1.00270693  6673
INTELSAT 19 (IS-19)     
1 38356U 12030A   26117.46643655  .00000000  00000+0  00000+0 0  9995
2 38356   0.0212 254.3430 0003287 146.6243 148.4054  1.00270476 49948
INTELSAT 20 (IS-20)     
1 38740U 12043A   26117.17822741 -.00000035  00000+0  00000+0 0  9998
2 38740   0.0198 149.3428 0002112  28.3679 170.1087  1.00272208 50230
INTELSAT 21 (IS-21)     
1 38749U 12045A   26117.41474072  .00000000  00000+0  00000+0 0  9997
2 38749   0.0220 250.3641 0002190 160.9016 255.4481  1.00273153 50010
INTELSAT 23 (IS-23)     
1 38867U 12057A   26117.05396142 -.00000295  00000+0  00000+0 0  9999
2 38867   0.0196 265.2605 0000309 345.5296 290.6693  1.00275519 49448
FM-6                    
1 39360U 13058A   26117.49171816 -.00000025  00000+0  00000+0 0  9998
2 39360   0.0195 263.7619 0000135 349.2077  23.2168  1.00270432 45564
INTELSAT 30 (IS-30)     
1 40271U 14062A   26114.39488937 -.00000165  00000+0  00000+0 0  9993
2 40271   0.0073 224.7449 0002247  46.3663 348.4158  1.00269572  6259
DIRECTV 14              
1 40333U 14078B   26117.10183941 -.00000136  00000+0  00000+0 0  9996
2 40333   0.0115  56.2272 0000071  70.8345  25.4552  1.00272214 41536
DIRECTV 15              
1 40663U 15026A   26117.48690759 -.00000112  00000+0  00000+0 0  9991
2 40663   0.0291  74.9055 0000365 122.3866  90.5923  1.00270914 39953
SKY MEXICO-1            
1 40664U 15026B   26117.47924867 -.00000244  00000+0  00000+0 0  9997
2 40664   0.0175 264.3713 0001899 127.5691 277.2433  1.00273360 39944
INTELSAT 34 (IS-34)     
1 40874U 15039A   26117.19437998 -.00000296  00000+0  00000+0 0  9994
2 40874   0.0163 282.4548 0000463  47.5496 259.6678  1.00273682 39123
INTELSAT 31 (IS-31)     
1 41581U 16035A   26117.48348139 -.00000157  00000+0  00000+0 0  9993
2 41581   0.0129 238.2519 0003182  29.7028  26.5177  1.00251889 36174
INTELSAT 36 (IS-36)     
1 41747U 16053A   26117.17822741 -.00000033  00000+0  00000+0 0  9992
2 41747   0.0113 314.3080 0002018   5.2296  28.2866  1.00264533 35446
INTELSAT 32E (IS-32E)   
1 41945U 17007B   26117.24489122  .00000000  00000+0  00000+0 0  9995
2 41945   0.0214 249.8046 0000084 353.1004  17.3221  1.00263478 33714
INTELSAT 35E (IS-35E)   
1 42818U 17041A   26117.23933605  .00000000  00000+0  00000+0 0  9992
2 42818   0.0116 225.1244 0002138 169.0922 232.6944  1.00271331 32302
INTELSAT 37E (IS-37E)   
1 42950U 17059A   26117.43239191  .00000000  00000+0  00000+0 0  9999
2 42950   0.0169 242.3226 0002378 182.0292 288.7311  1.00269608 31559
AZERSPACE 2 (IS-38)     
1 43632U 18074A   26117.20044858  .00000126  00000+0  00000+0 0  9993
2 43632   0.0215 254.1930 0001444 133.4629 304.8047  1.00270976 27932
HORIZONS-3E             
1 43633U 18074B   26117.46506242 -.00000040  00000+0  00000+0 0  9998
2 43633   0.0408  77.9651 0000685 247.9477 225.9512  1.00271254 27835
AT&T T-16               
1 44333U 19034A   26117.10183941 -.00000126  00000+0  00000+0 0  9996
2 44333   0.0431  71.5086 0000538 163.4814 275.9135  1.00271022 25124
INTELSAT 39 (IS-39)     
1 44476U 19049B   26117.13239314  .00000000  00000+0  00000+0 0  9999
2 44476   0.0212 248.8246 0000441 353.0774  82.8304  1.00269427 24613
GALAXY 30 (G-30)        
1 46114U 20056C   26117.03966138  .00000000  00000+0  00000+0 0  9990
2 46114   0.0126 236.3465 0002527 172.8147  55.1468  1.00271333 20788
GALAXY 33 (G-33)        
1 54026U 22128A   26117.49788860  .00000070  00000+0  00000+0 0  9994
2 54026   0.0141 278.1333 0001805 105.0996 238.4900  1.00273704 13235
GALAXY 34 (G-34)        
1 54027U 22128B   26117.46633512  .00000050  00000+0  00000+0 0  9993
2 54027   0.0144 244.8575 0001570 155.2911 214.1822  1.00272618 13406
GALAXY 31 (G-31)        
1 54243U 22153A   26117.49466271  .00000004  00000+0  00000+0 0  9999
2 54243   0.0110 240.7541 0001375 156.5939 235.2070  1.00273296  6622
GALAXY 32 (G-32)        
1 54244U 22153B   26117.46793810 -.00000183  00000+0  00000+0 0  9998
2 54244   0.0171 285.0571 0002887  99.2035 268.6495  1.00271833 12638
GALAXY 35 (G-35)        
1 54741U 22170A   26117.48496546 -.00000171  00000+0  00000+0 0  9994
2 54741   0.0383  87.9568 0002030 308.6462 260.3416  1.00271677 12381
GALAXY 36 (G-36)        
1 54742U 22170B   26117.47129492 -.00000194  00000+0  00000+0 0  9992
2 54742   0.0130 189.5085 0002793 235.9667 230.6481  1.00271460 12269
GALAXY 37 (G-37)        
1 57493U 23112A   26117.46366176  .00000000  00000+0  00000+0 0  9991
2 57493   0.0124 245.9151 0002216 150.0747 219.3812  1.00270539 10036
